CCSDS_OMM_VERS = 2.0
CREATION_DATE  = 
ORIGINATOR     = 

OBJECT_NAME    = DELTA 1 R/B
OBJECT_ID      = 1989-089B
CENTER_NAME    = EARTH
REF_FRAME      = TEME
TIME_SYSTEM    = UTC
MEAN_ELEMENT_THEORY = SGP/SGP4

EPOCH          = 2025-11-05T14:19:28.775712
MEAN_MOTION    = 14.50523972
ECCENTRICITY   = .00698422
INCLINATION    = 97.0790
RA_OF_ASC_NODE = 171.7150
ARG_OF_PERICENTER = 153.5765
MEAN_ANOMALY   = 206.9022

EPHEMERIS_TYPE = 0
CLASSIFICATION_TYPE = U
NORAD_CAT_ID   = 20323
ELEMENT_SET_NO = 999
REV_AT_EPOCH   = 87774
BSTAR          = .11170926E-3
MEAN_MOTION_DOT = .416E-5
MEAN_MOTION_DDOT = 0

CCSDS_OMM_VERS = 2.0
CREATION_DATE  = 
ORIGINATOR     = 

OBJECT_NAME    = ARIANE 40 R/B
OBJECT_ID      = 1990-005H
CENTER_NAME    = EARTH
REF_FRAME      = TEME
TIME_SYSTEM    = UTC
MEAN_ELEMENT_THEORY = SGP/SGP4

EPOCH          = 2025-11-05T13:25:05.710368
MEAN_MOTION    = 14.39753220
ECCENTRICITY   = .00095387
INCLINATION    = 98.3295
RA_OF_ASC_NODE = 8.7788
ARG_OF_PERICENTER = 212.5154
MEAN_ANOMALY   = 147.5448

EPHEMERIS_TYPE = 0
CLASSIFICATION_TYPE = U
NORAD_CAT_ID   = 20443
ELEMENT_SET_NO = 999
REV_AT_EPOCH   = 87494
BSTAR          = .13500657E-3
MEAN_MOTION_DOT = .381E-5
MEAN_MOTION_DDOT = 0

CCSDS_OMM_VERS = 2.0
CREATION_DATE  = 
ORIGINATOR     = 

OBJECT_NAME    = DELTA 2 R/B(1)
OBJECT_ID      = 1990-008B
CENTER_NAME    = EARTH
REF_FRAME      = TEME
TIME_SYSTEM    = UTC
MEAN_ELEMENT_THEORY = SGP/SGP4

EPOCH          = 2025-11-05T13:22:55.582464
MEAN_MOTION    = 15.41752447
ECCENTRICITY   = .0118542
INCLINATION    = 35.6083
RA_OF_ASC_NODE = 260.0092
ARG_OF_PERICENTER = 200.5105
MEAN_ANOMALY   = 159.0841

EPHEMERIS_TYPE = 0
CLASSIFICATION_TYPE = U
NORAD_CAT_ID   = 20453
ELEMENT_SET_NO = 999
REV_AT_EPOCH   = 90688
BSTAR          = .65575401E-3
MEAN_MOTION_DOT = .37069E-3
MEAN_MOTION_DDOT = 0

CCSDS_OMM_VERS = 2.0
CREATION_DATE  = 
ORIGINATOR     = 

OBJECT_NAME    = COSMOS 2058
OBJECT_ID      = 1990-010A
CENTER_NAME    = EARTH
REF_FRAME      = TEME
TIME_SYSTEM    = UTC
MEAN_ELEMENT_THEORY = SGP/SGP4

EPOCH          = 2025-11-05T20:28:41.035008
MEAN_MOTION    = 15.10044364
ECCENTRICITY   = .00115136
INCLINATION    = 82.4673
RA_OF_ASC_NODE = 169.3156
ARG_OF_PERICENTER = 43.0627
MEAN_ANOMALY   = 317.1501

EPHEMERIS_TYPE = 0
CLASSIFICATION_TYPE = U
NORAD_CAT_ID   = 20465
ELEMENT_SET_NO = 999
REV_AT_EPOCH   = 92354
BSTAR          = .24892834E-3
MEAN_MOTION_DOT = .4082E-4
MEAN_MOTION_DDOT = 0

CCSDS_OMM_VERS = 2.0
CREATION_DATE  = 
ORIGINATOR     = 

OBJECT_NAME    = SL-14 R/B
OBJECT_ID      = 1990-010B
CENTER_NAME    = EARTH
REF_FRAME      = TEME
TIME_SYSTEM    = UTC
MEAN_ELEMENT_THEORY = SGP/SGP4

EPOCH          = 2025-11-05T15:31:18.710976
MEAN_MOTION    = 14.83418810
ECCENTRICITY   = .00195775
INCLINATION    = 82.5051
RA_OF_ASC_NODE = 23.8776
ARG_OF_PERICENTER = 353.1373
MEAN_ANOMALY   = 6.9571

EPHEMERIS_TYPE = 0
CLASSIFICATION_TYPE = U
NORAD_CAT_ID   = 20466
ELEMENT_SET_NO = 999
REV_AT_EPOCH   = 91009
BSTAR          = .65236665E-4
MEAN_MOTION_DOT = .561E-5
MEAN_MOTION_DDOT = 0

CCSDS_OMM_VERS = 2.0
CREATION_DATE  = 
ORIGINATOR     = 

OBJECT_NAME    = SL-14 R/B
OBJECT_ID      = 1990-018B
CENTER_NAME    = EARTH
REF_FRAME      = TEME
TIME_SYSTEM    = UTC
MEAN_ELEMENT_THEORY = SGP/SGP4

EPOCH          = 2025-11-05T11:27:57.298464
MEAN_MOTION    = 14.81992599
ECCENTRICITY   = .00174737
INCLINATION    = 82.5214
RA_OF_ASC_NODE = 339.1962
ARG_OF_PERICENTER = 137.1271
MEAN_ANOMALY   = 223.1310

EPHEMERIS_TYPE = 0
CLASSIFICATION_TYPE = U
NORAD_CAT_ID   = 20511
ELEMENT_SET_NO = 999
REV_AT_EPOCH   = 90418
BSTAR          = .6061381E-4
MEAN_MOTION_DOT = .505E-5
MEAN_MOTION_DDOT = 0

CCSDS_OMM_VERS = 2.0
CREATION_DATE  = 
ORIGINATOR     = 

OBJECT_NAME    = HST
OBJECT_ID      = 1990-037B
CENTER_NAME    = EARTH
REF_FRAME      = TEME
TIME_SYSTEM    = UTC
MEAN_ELEMENT_THEORY = SGP/SGP4

EPOCH          = 2025-11-05T16:28:21.113472
MEAN_MOTION    = 15.27326133
ECCENTRICITY   = .00017167
INCLINATION    = 28.4660
RA_OF_ASC_NODE = 164.5603
ARG_OF_PERICENTER = 170.4397
MEAN_ANOMALY   = 189.6231

EPHEMERIS_TYPE = 0
CLASSIFICATION_TYPE = U
NORAD_CAT_ID   = 20580
ELEMENT_SET_NO = 999
REV_AT_EPOCH   = 75432
BSTAR          = .28463233E-3
MEAN_MOTION_DOT = .8063E-4
MEAN_MOTION_DDOT = 0

CCSDS_OMM_VERS = 2.0
CREATION_DATE  = 
ORIGINATOR     = 

OBJECT_NAME    = SL-16 R/B
OBJECT_ID      = 1990-046B
CENTER_NAME    = EARTH
REF_FRAME      = TEME
TIME_SYSTEM    = UTC
MEAN_ELEMENT_THEORY = SGP/SGP4

EPOCH          = 2025-11-05T16:52:10.257600
MEAN_MOTION    = 14.14992146
ECCENTRICITY   = .00124196
INCLINATION    = 70.9991
RA_OF_ASC_NODE = 198.3011
ARG_OF_PERICENTER = 140.5365
MEAN_ANOMALY   = 219.6664

EPHEMERIS_TYPE = 0
CLASSIFICATION_TYPE = U
NORAD_CAT_ID   = 20625
ELEMENT_SET_NO = 999
REV_AT_EPOCH   = 83085
BSTAR          = -.47030001E-4
MEAN_MOTION_DOT = -.139E-5
MEAN_MOTION_DDOT = 0

CCSDS_OMM_VERS = 2.0
CREATION_DATE  = 
ORIGINATOR     = 

OBJECT_NAME    = COSMOS 2084
OBJECT_ID      = 1990-055A
CENTER_NAME    = EARTH
REF_FRAME      = TEME
TIME_SYSTEM    = UTC
MEAN_ELEMENT_THEORY = SGP/SGP4

EPOCH          = 2025-11-05T16:31:21.246240
MEAN_MOTION    = 15.04677149
ECCENTRICITY   = .00378493
INCLINATION    = 62.7923
RA_OF_ASC_NODE = 38.2084
ARG_OF_PERICENTER = 170.2662
MEAN_ANOMALY   = 189.9180

EPHEMERIS_TYPE = 0
CLASSIFICATION_TYPE = U
NORAD_CAT_ID   = 20663
ELEMENT_SET_NO = 999
REV_AT_EPOCH   = 91765
BSTAR          = .3071728E-3
MEAN_MOTION_DOT = .4206E-4
MEAN_MOTION_DDOT = 0

CCSDS_OMM_VERS = 2.0
CREATION_DATE  = 
ORIGINATOR     = 

OBJECT_NAME    = SL-6 R/B(2)
OBJECT_ID      = 1990-055D
CENTER_NAME    = EARTH
REF_FRAME      = TEME
TIME_SYSTEM    = UTC
MEAN_ELEMENT_THEORY = SGP/SGP4

EPOCH          = 2025-11-05T23:22:37.812864
MEAN_MOTION    = 15.02796374
ECCENTRICITY   = .00107018
INCLINATION    = 62.7836
RA_OF_ASC_NODE = 314.3147
ARG_OF_PERICENTER = 276.1734
MEAN_ANOMALY   = 83.8145

EPHEMERIS_TYPE = 0
CLASSIFICATION_TYPE = U
NORAD_CAT_ID   = 20666
ELEMENT_SET_NO = 999
REV_AT_EPOCH   = 91959
BSTAR          = .24365404E-3
MEAN_MOTION_DOT = .3085E-4
MEAN_MOTION_DDOT = 0

CCSDS_OMM_VERS = 2.0
CREATION_DATE  = 
ORIGINATOR     = 

OBJECT_NAME    = SL-8 R/B
OBJECT_ID      = 1990-078B
CENTER_NAME    = EARTH
REF_FRAME      = TEME
TIME_SYSTEM    = UTC
MEAN_ELEMENT_THEORY = SGP/SGP4

EPOCH          = 2025-11-05T14:26:19.451328
MEAN_MOTION    = 14.83953992
ECCENTRICITY   = .03825892
INCLINATION    = 82.9079
RA_OF_ASC_NODE = 2.4900
ARG_OF_PERICENTER = 70.0389
MEAN_ANOMALY   = 294.1603

EPHEMERIS_TYPE = 0
CLASSIFICATION_TYPE = U
NORAD_CAT_ID   = 20775
ELEMENT_SET_NO = 999
REV_AT_EPOCH   = 79086
BSTAR          = .46767854E-3
MEAN_MOTION_DOT = .15159E-3
MEAN_MOTION_DDOT = 0

CCSDS_OMM_VERS = 2.0
CREATION_DATE  = 
ORIGINATOR     = 

OBJECT_NAME    = SL-8 R/B
OBJECT_ID      = 1991-006B
CENTER_NAME    = EARTH
REF_FRAME      = TEME
TIME_SYSTEM    = UTC
MEAN_ELEMENT_THEORY = SGP/SGP4

EPOCH          = 2025-11-05T23:57:23.395680
MEAN_MOTION    = 13.77481887
ECCENTRICITY   = .00231875
INCLINATION    = 82.9404
RA_OF_ASC_NODE = 262.0437
ARG_OF_PERICENTER = 25.0136
MEAN_ANOMALY   = 44.5930

EPHEMERIS_TYPE = 0
CLASSIFICATION_TYPE = U
NORAD_CAT_ID   = 21088
ELEMENT_SET_NO = 999
REV_AT_EPOCH   = 74704
BSTAR          = .12098888E-3
MEAN_MOTION_DOT = .136E-5
MEAN_MOTION_DDOT = 0

