DELTA 1 R/B             
1 20323U 89089B   25309.59686083  .00000416  00000+0  11171-3 0  9992
2 20323  97.0790 171.7150 0069842 153.5765 206.9022 14.50523972877749
ARIANE 40 R/B           
1 20443U 90005H   25309.55909387  .00000381  00000+0  13501-3 0  9996
2 20443  98.3295   8.7788 0009538 212.5154 147.5448 14.39753220874945
DELTA 2 R/B(1)          
1 20453U 90008B   25309.55758776  .00037069  00000+0  65575-3 0  9995
2 20453  35.6083 260.0092 0118542 200.5105 159.0841 15.41752447906883
COSMOS 2058             
1 20465U 90010A   25309.85325272  .00004082  00000+0  24893-3 0  9992
2 20465  82.4673 169.3156 0011513  43.0627 317.1501 15.10044364923542
SL-14 R/B               
1 20466U 90010B   25309.64674434  .00000561  00000+0  65237-4 0  9993
2 20466  82.5051  23.8776 0019577 353.1373   6.9571 14.83418810910093
SL-14 R/B               
1 20511U 90018B   25309.47774651  .00000505  00000+0  60614-4 0  9997
2 20511  82.5214 339.1962 0017473 137.1271 223.1310 14.81992599904181
HST                     
1 20580U 90037B   25309.68635548  .00008063  00000+0  28463-3 0  9990
2 20580  28.4660 164.5603 0001716 170.4397 189.6231 15.27326133754328
SL-16 R/B               
1 20625U 90046B   25309.70289650 -.00000139  00000+0 -47030-4 0  9992
2 20625  70.9991 198.3011 0012419 140.5365 219.6664 14.14992146830855
COSMOS 2084             
1 20663U 90055A   25309.68844035  .00004206  00000+0  30717-3 0  9995
2 20663  62.7923  38.2084 0037849 170.2662 189.9180 15.04677149917656
SL-6 R/B(2)             
1 20666U 90055D   25309.97404876  .00003085  00000+0  24365-3 0  9991
2 20666  62.7836 314.3147 0010701 276.1734  83.8145 15.02796374919592
SL-8 R/B                
1 20775U 90078B   25309.60161402  .00015159  00000+0  46768-3 0  9998
2 20775  82.9079   2.4900 0382589  70.0389 294.1603 14.83953992790863
SL-8 R/B                
1 21088U 91006B   25309.99818745  .00000136  00000+0  12099-3 0  9998
2 21088  82.9404 262.0437 0023187  25.0136  44.5930 13.77481887747041
